*******************************************************************************
Ephemeris / WWW_USER Tue Nov  3 09:50:06 2020 Pasadena, USA      / Horizons
*******************************************************************************
Target body name: Mars (499)                      {source: mar097}
Center body name: Sun (10)                        {source: mar097}
Center-site name: BODY CENTER
*******************************************************************************
Start time      : A.D. 2020-Sep-15 00:00:00.0000 TDB
Stop  time      : A.D. 2020-Oct-15 00:00:00.0000 TDB
Step-size       : 1440 minutes
*******************************************************************************
Center geodetic : 0.00000000,0.00000000,0.0000000 {E-lon(deg),Lat(deg),Alt(km)}
Center cylindric: 0.00000000,0.00000000,0.0000000 {E-lon(deg),Dxy(km),Dz(km)}
Center radii    : 696000.0 x 696000.0 x 696000.0 k{Equator, meridian, pole}    
Keplerian GM    : 1.3271248287031293E+11 km^3/s^2
Output units    : KM-S, deg, Julian Day Number (Tp)
Output type     : GEOMETRIC osculating elements
Output format   : 10
Reference frame : Ecliptic of J2000.0
*******************************************************************************
            JDTDB,            Calendar Date (TDB),                     EC,                     QR,                     IN,                     OM,                      W,                     Tp,                      N,                     MA,                     TA,                      A,                     AD,                     PR,
**************************************************************************************************************************************************************************************************************************************************************************************************************************************************
$$SOE
2459107.500000000, A.D. 2020-Sep-15 00:00:00.0000,  9.337219090575759E-02,  2.066520855394645E+08,  1.847918479753490E+00,  4.949473728418323E+01,  2.866130215345534E+02,  2.459064886942845E+06,  6.065441031690548E-06,  2.233154753468928E+01,  2.688150663759044E+01,  2.279348630899798E+08,  2.492176406404951E+08,  5.935265022264367E+07,
2459108.500000000, A.D. 2020-Sep-16 00:00:00.0000,  9.337124713377090E-02,  2.066521243107008E+08,  1.847919419746637E+00,  4.949470688182769E+01,  2.866131966735232E+02,  2.459064887147065E+06,  6.065448795639709E-06,  2.285552387293752E+01,  2.750420512089073E+01,  2.279346685811450E+08,  2.492172128515892E+08,  5.935257424954185E+07,
2459109.500000000, A.D. 2020-Sep-17 00:00:00.0000,  9.337030857724272E-02,  2.066521644536184E+08,  1.847920376814086E+00,  4.949467660554565E+01,  2.866133730484719E+02,  2.459064887352794E+06,  6.065456446860830E-06,  2.337950032744592E+01,  2.812636325760760E+01,  2.279344768968717E+08,  2.492167893401250E+08,  5.935249937971570E+07,
2459110.500000000, A.D. 2020-Sep-18 00:00:00.0000,  9.336937583182733E-02,  2.066522059022217E+08,  1.847921333265788E+00,  4.949464700948148E+01,  2.866135496523436E+02,  2.459064887559334E+06,  6.065463982281753E-06,  2.390347722290607E+01,  2.874797102678076E+01,  2.279342881141078E+08,  2.492163703259940E+08,  5.935242564321887E+07,
2459111.500000000, A.D. 2020-Sep-19 00:00:00.0000,  9.336845017931948E-02,  2.066522486575950E+08,  1.847922281004135E+00,  4.949461831414898E+01,  2.866137264049413E+02,  2.459064887766930E+06,  6.065471388991488E-06,  2.442745434804297E+01,  2.936901793200528E+01,  2.279341025562898E+08,  2.492159564549846E+08,  5.935235316638061E+07,
2459112.500000000, A.D. 2020-Sep-20 00:00:00.0000,  9.336753327176790E-02,  2.066522927990381E+08,  1.847923224414207E+00,  4.949459035542906E+01,  2.866139041911038E+02,  2.459064887976747E+06,  6.065478646919900E-06,  2.495143097684689E+01,  2.998949301586891E+01,  2.279339207262068E+08,  2.492155486533754E+08,  5.935228214558318E+07,
2459113.500000000, A.D. 2020-Sep-21 00:00:00.0000,  9.336662650246508E-02,  2.066523384346945E+08,  1.847924173802107E+00,  4.949456281289608E+01,  2.866140841832634E+02,  2.459064888190149E+06,  6.065485737323624E-06,  2.547540627688015E+01,  3.060938531073700E+01,  2.279337430934054E+08,  2.492151477521162E+08,  5.935221276422436E+07,
2459114.500000000, A.D. 2020-Sep-22 00:00:00.0000,  9.336573002263215E-02,  2.066523856439310E+08,  1.847925138459796E+00,  4.949453542132078E+01,  2.866142671028389E+02,  2.459064888407853E+06,  6.065492655190622E-06,  2.599937980809007E+01,  3.122868436748625E+01,  2.279335697834251E+08,  2.492147539229191E+08,  5.935214507133653E+07,
2459115.500000000, A.D. 2020-Sep-23 00:00:00.0000,  9.336484252406915E-02,  2.066524344453994E+08,  1.847926121779994E+00,  4.949450810015504E+01,  2.866144528621080E+02,  2.459064888629560E+06,  6.065499412827500E-06,  2.652335173592521E+01,  3.184738048571215E+01,  2.279334004879307E+08,  2.492143665304619E+08,  5.935207894648562E+07,
2459116.500000000, A.D. 2020-Sep-24 00:00:00.0000,  9.336396266060322E-02,  2.066524848032552E+08,  1.847927117973024E+00,  4.949448102390024E+01,  2.866146407730250E+02,  2.459064888854430E+06,  6.065506025321252E-06,  2.704732252651706E+01,  3.246546443601007E+01,  2.279332348289343E+08,  2.492139848546135E+08,  5.935201424203236E+07,
2459117.500000000, A.D. 2020-Sep-25 00:00:00.0000,  9.336309073288711E-02,  2.066525366703362E+08,  1.847928114368996E+00,  4.949445453540473E+01,  2.866148301936985E+02,  2.459064889082002E+06,  6.065512491730972E-06,  2.757129237925920E+01,  3.308292690149519E+01,  2.279330728299882E+08,  2.492136089896402E+08,  5.935195096717432E+07,
2459118.500000000, A.D. 2020-Sep-26 00:00:00.0000,  9.336222856480814E-02,  2.066525900253597E+08,  1.847929098252891E+00,  4.949442895098834E+01,  2.866150209469720E+02,  2.459064889312546E+06,  6.065518794690445E-06,  2.809526103476911E+01,  3.369975825527972E+01,  2.279329149261366E+08,  2.492132398269136E+08,  5.935188929183307E+07,
2459119.500000000, A.D. 2020-Sep-27 00:00:00.0000,  9.336137803837857E-02,  2.066526448854147E+08,  1.847930063267414E+00,  4.949440439965903E+01,  2.866152133092608E+02,  2.459064889546752E+06,  6.065524914560761E-06,  2.861922799631768E+01,  3.431594873360314E+01,  2.279327616093576E+08,  2.492128783333005E+08,  5.935182940816750E+07,
2459120.500000000, A.D. 2020-Sep-28 00:00:00.0000,  9.336054011293207E-02,  2.066527013193962E+08,  1.847931014101488E+00,  4.949438072587594E+01,  2.866154079919862E+02,  2.459064889785518E+06,  6.065530838681422E-06,  2.914319268444816E+01,  3.493148855281358E+01,  2.279326131968016E+08,  2.492125250742071E+08,  5.935177144005089E+07,
2459121.500000000, A.D. 2020-Sep-29 00:00:00.0000,  9.335971483021981E-02,  2.066527594423499E+08,  1.847931965484378E+00,  4.949435754435678E+01,  2.866156060183350E+02,  2.459064890029843E+06,  6.065536561568161E-06,  2.966715449875523E+01,  3.554636797896556E+01,  2.279324698258378E+08,  2.492121802093257E+08,  5.935171544113600E+07,
2459122.500000000, A.D. 2020-Sep-30 00:00:00.0000,  9.335890161707130E-02,  2.066528193453768E+08,  1.847932930675923E+00,  4.949433453763989E+01,  2.866158080687369E+02,  2.459064890280275E+06,  6.065542084961782E-06,  3.019111310823983E+01,  3.616057768595965E+01,  2.279323314528314E+08,  2.492118435602859E+08,  5.935166139437779E+07,
2459123.500000000, A.D. 2020-Oct-01 00:00:00.0000,  9.335809967650105E-02,  2.066528810055072E+08,  1.847933906658915E+00,  4.949431179190593E+01,  2.866160137403744E+02,  2.459064890536299E+06,  6.065547417871323E-06,  3.071506877726122E+01,  3.677410916135864E+01,  2.279321978520641E+08,  2.492115146986210E+08,  5.935160921161183E+07,
2459124.500000000, A.D. 2020-Oct-02 00:00:00.0000,  9.335730863410634E-02,  2.066529443016432E+08,  1.847934874280368E+00,  4.949428975074034E+01,  2.866162218427550E+02,  2.459064890796743E+06,  6.065552569385438E-06,  3.123902211622865E+01,  3.738695445800103E+01,  2.279320687958254E+08,  2.492111932900076E+08,  5.935155880389562E+07,
2459125.500000000, A.D. 2020-Oct-03 00:00:00.0000,  9.335652901685945E-02,  2.066530091388867E+08,  1.847935815305872E+00,  4.949426879932965E+01,  2.866164315917226E+02,  2.459064891061012E+06,  6.065557538393842E-06,  3.176297338495865E+01,  3.799910541652720E+01,  2.279319443119108E+08,  2.492108794849349E+08,  5.935151018208425E+07,
2459126.500000000, A.D. 2020-Oct-04 00:00:00.0000,  9.335576217327599E-02,  2.066530755318757E+08,  1.847936725302275E+00,  4.949424899132031E+01,  2.866166432934207E+02,  2.459064891329719E+06,  6.065562310719374E-06,  3.228692213972626E+01,  3.861055325527444E+01,  2.279318247554680E+08,  2.492105739790603E+08,  5.935146348489232E+07,
2459127.500000000, A.D. 2020-Oct-05 00:00:00.0000,  9.335500972277769E-02,  2.066531435740903E+08,  1.847937611197449E+00,  4.949423013517915E+01,  2.866168579661133E+02,  2.459064891604213E+06,  6.065566865995103E-06,  3.281086751210466E+01,  3.922128886289732E+01,  2.279317106367097E+08,  2.492102776993290E+08,  5.935141891160064E+07,
2459128.500000000, A.D. 2020-Oct-06 00:00:00.0000,  9.335427259396749E-02,  2.066532133617754E+08,  1.847938483334900E+00,  4.949421198444441E+01,  2.866170765554039E+02,  2.459064891885622E+06,  6.065571190664874E-06,  3.333480877975506E+01,  3.983130339370438E+01,  2.279316022952235E+08,  2.492099912286716E+08,  5.935137659484610E+07,
2459129.500000000, A.D. 2020-Oct-07 00:00:00.0000,  9.335355021161471E-02,  2.066532849439918E+08,  1.847939350555573E+00,  4.949419434338214E+01,  2.866172994056349E+02,  2.459064892174166E+06,  6.065575288341182E-06,  3.385874578842366E+01,  4.044058869134899E+01,  2.279314996404889E+08,  2.492097143369859E+08,  5.935133649927096E+07,
